CCSDS_OMM_VERS = 2.0
CREATION_DATE  = 
ORIGINATOR     = 

OBJECT_NAME    = HTV-X1
OBJECT_ID      = 2025-241A
CENTER_NAME    = EARTH
REF_FRAME      = TEME
TIME_SYSTEM    = UTC
MEAN_ELEMENT_THEORY = SGP/SGP4

EPOCH          = 2026-04-03T19:43:39.982656
MEAN_MOTION    = 15.32523004
ECCENTRICITY   = .0007281
INCLINATION    = 51.6360
RA_OF_ASC_NODE = 311.9230
ARG_OF_PERICENTER = 269.6353
MEAN_ANOMALY   = 90.3794

EPHEMERIS_TYPE = 0
CLASSIFICATION_TYPE = U
NORAD_CAT_ID   = 66174
ELEMENT_SET_NO = 999
REV_AT_EPOCH   = 2479
BSTAR          = .266E-3
MEAN_MOTION_DOT = .8122E-4
MEAN_MOTION_DDOT = 0

CCSDS_OMM_VERS = 2.0
CREATION_DATE  = 
ORIGINATOR     = 

OBJECT_NAME    = SZ-21 MODULE
OBJECT_ID      = 2025-246C
CENTER_NAME    = EARTH
REF_FRAME      = TEME
TIME_SYSTEM    = UTC
MEAN_ELEMENT_THEORY = SGP/SGP4

EPOCH          = 2026-04-03T13:41:59.326656
MEAN_MOTION    = 15.70603524
ECCENTRICITY   = .000297
INCLINATION    = 41.4748
RA_OF_ASC_NODE = 49.9717
ARG_OF_PERICENTER = 226.3876
MEAN_ANOMALY   = 133.6720

EPHEMERIS_TYPE = 0
CLASSIFICATION_TYPE = U
NORAD_CAT_ID   = 66515
ELEMENT_SET_NO = 999
REV_AT_EPOCH   = 2198
BSTAR          = .44364E-3
MEAN_MOTION_DOT = .56445E-3
MEAN_MOTION_DDOT = 0

CCSDS_OMM_VERS = 2.0
CREATION_DATE  = 
ORIGINATOR     = 

OBJECT_NAME    = SHENZHOU-22
OBJECT_ID      = 2025-272A
CENTER_NAME    = EARTH
REF_FRAME      = TEME
TIME_SYSTEM    = UTC
MEAN_ELEMENT_THEORY = SGP/SGP4

EPOCH          = 2026-04-03T20:29:41.224704
MEAN_MOTION    = 15.61964693
ECCENTRICITY   = .00038
INCLINATION    = 41.4676
RA_OF_ASC_NODE = 54.8968
ARG_OF_PERICENTER = 118.7350
MEAN_ANOMALY   = 241.3871

EPHEMERIS_TYPE = 0
CLASSIFICATION_TYPE = U
NORAD_CAT_ID   = 66645
ELEMENT_SET_NO = 999
REV_AT_EPOCH   = 28180
BSTAR          = .38035E-3
MEAN_MOTION_DOT = .33937E-3
MEAN_MOTION_DDOT = 0

CCSDS_OMM_VERS = 2.0
CREATION_DATE  = 
ORIGINATOR     = 

OBJECT_NAME    = SOYUZ-MS 28
OBJECT_ID      = 2025-275A
CENTER_NAME    = EARTH
REF_FRAME      = TEME
TIME_SYSTEM    = UTC
MEAN_ELEMENT_THEORY = SGP/SGP4

EPOCH          = 2026-04-03T21:00:58.615488
MEAN_MOTION    = 15.48754008
ECCENTRICITY   = .0006253
INCLINATION    = 51.6327
RA_OF_ASC_NODE = 307.8415
ARG_OF_PERICENTER = 268.9169
MEAN_ANOMALY   = 91.1103

EPHEMERIS_TYPE = 0
CLASSIFICATION_TYPE = U
NORAD_CAT_ID   = 66664
ELEMENT_SET_NO = 999
REV_AT_EPOCH   = 56032
BSTAR          = .23534E-3
MEAN_MOTION_DOT = .12431E-3
MEAN_MOTION_DDOT = 0

CCSDS_OMM_VERS = 2.0
CREATION_DATE  = 
ORIGINATOR     = 

OBJECT_NAME    = DUPLEX
OBJECT_ID      = 1998-067XS
CENTER_NAME    = EARTH
REF_FRAME      = TEME
TIME_SYSTEM    = UTC
MEAN_ELEMENT_THEORY = SGP/SGP4

EPOCH          = 2026-04-03T20:58:08.616576
MEAN_MOTION    = 15.57944721
ECCENTRICITY   = .000315
INCLINATION    = 51.6281
RA_OF_ASC_NODE = 303.3293
ARG_OF_PERICENTER = 230.6102
MEAN_ANOMALY   = 129.4612

EPHEMERIS_TYPE = 0
CLASSIFICATION_TYPE = U
NORAD_CAT_ID   = 66906
ELEMENT_SET_NO = 999
REV_AT_EPOCH   = 1905
BSTAR          = .56333E-3
MEAN_MOTION_DOT = .42685E-3
MEAN_MOTION_DDOT = 0

CCSDS_OMM_VERS = 2.0
CREATION_DATE  = 
ORIGINATOR     = 

OBJECT_NAME    = ISS OBJECT XT
OBJECT_ID      = 1998-067XT
CENTER_NAME    = EARTH
REF_FRAME      = TEME
TIME_SYSTEM    = UTC
MEAN_ELEMENT_THEORY = SGP/SGP4

EPOCH          = 2026-04-03T18:58:22.754496
MEAN_MOTION    = 15.79721293
ECCENTRICITY   = .0007071
INCLINATION    = 51.6221
RA_OF_ASC_NODE = 296.7263
ARG_OF_PERICENTER = 244.1010
MEAN_ANOMALY   = 115.9263

EPHEMERIS_TYPE = 0
CLASSIFICATION_TYPE = U
NORAD_CAT_ID   = 66907
ELEMENT_SET_NO = 999
REV_AT_EPOCH   = 1913
BSTAR          = .17775E-2
MEAN_MOTION_DOT = .346833E-2
MEAN_MOTION_DDOT = 0

CCSDS_OMM_VERS = 2.0
CREATION_DATE  = 
ORIGINATOR     = 

OBJECT_NAME    = ISS OBJECT XU
OBJECT_ID      = 1998-067XU
CENTER_NAME    = EARTH
REF_FRAME      = TEME
TIME_SYSTEM    = UTC
MEAN_ELEMENT_THEORY = SGP/SGP4

EPOCH          = 2026-04-03T18:51:21.046464
MEAN_MOTION    = 15.80057487
ECCENTRICITY   = .0007202
INCLINATION    = 51.6220
RA_OF_ASC_NODE = 296.6887
ARG_OF_PERICENTER = 243.6126
MEAN_ANOMALY   = 116.4136

EPHEMERIS_TYPE = 0
CLASSIFICATION_TYPE = U
NORAD_CAT_ID   = 66908
ELEMENT_SET_NO = 999
REV_AT_EPOCH   = 1913
BSTAR          = .17948E-2
MEAN_MOTION_DOT = .356022E-2
MEAN_MOTION_DDOT = 0

CCSDS_OMM_VERS = 2.0
CREATION_DATE  = 
ORIGINATOR     = 

OBJECT_NAME    = SILVERSAT
OBJECT_ID      = 1998-067XV
CENTER_NAME    = EARTH
REF_FRAME      = TEME
TIME_SYSTEM    = UTC
MEAN_ELEMENT_THEORY = SGP/SGP4

EPOCH          = 2026-04-03T18:43:07.529664
MEAN_MOTION    = 15.87036353
ECCENTRICITY   = .0008837
INCLINATION    = 51.6183
RA_OF_ASC_NODE = 295.1303
ARG_OF_PERICENTER = 251.8453
MEAN_ANOMALY   = 108.1590

EPHEMERIS_TYPE = 0
CLASSIFICATION_TYPE = U
NORAD_CAT_ID   = 66909
ELEMENT_SET_NO = 999
REV_AT_EPOCH   = 1915
BSTAR          = .20456E-2
MEAN_MOTION_DOT = .579654E-2
MEAN_MOTION_DDOT = 0

CCSDS_OMM_VERS = 2.0
CREATION_DATE  = 
ORIGINATOR     = 

OBJECT_NAME    = ISS OBJECT XW
OBJECT_ID      = 1998-067XW
CENTER_NAME    = EARTH
REF_FRAME      = TEME
TIME_SYSTEM    = UTC
MEAN_ELEMENT_THEORY = SGP/SGP4

EPOCH          = 2026-04-03T19:17:47.397984
MEAN_MOTION    = 15.77771409
ECCENTRICITY   = .0007277
INCLINATION    = 51.6199
RA_OF_ASC_NODE = 296.8087
ARG_OF_PERICENTER = 239.9507
MEAN_ANOMALY   = 120.0772

EPHEMERIS_TYPE = 0
CLASSIFICATION_TYPE = U
NORAD_CAT_ID   = 66910
ELEMENT_SET_NO = 999
REV_AT_EPOCH   = 1913
BSTAR          = .16307E-2
MEAN_MOTION_DOT = .289411E-2
MEAN_MOTION_DDOT = 0

CCSDS_OMM_VERS = 2.0
CREATION_DATE  = 
ORIGINATOR     = 

OBJECT_NAME    = ISS OBJECT XX
OBJECT_ID      = 1998-067XX
CENTER_NAME    = EARTH
REF_FRAME      = TEME
TIME_SYSTEM    = UTC
MEAN_ELEMENT_THEORY = SGP/SGP4

EPOCH          = 2026-04-03T19:36:21.684096
MEAN_MOTION    = 15.97317952
ECCENTRICITY   = .0010965
INCLINATION    = 51.6151
RA_OF_ASC_NODE = 293.0793
ARG_OF_PERICENTER = 258.1070
MEAN_ANOMALY   = 101.8709

EPHEMERIS_TYPE = 0
CLASSIFICATION_TYPE = U
NORAD_CAT_ID   = 66911
ELEMENT_SET_NO = 999
REV_AT_EPOCH   = 1917
BSTAR          = .24502E-2
MEAN_MOTION_DOT = .1105203E-1
MEAN_MOTION_DDOT = .59707E-3

CCSDS_OMM_VERS = 2.0
CREATION_DATE  = 
ORIGINATOR     = 

OBJECT_NAME    = ISS OBJECT XY
OBJECT_ID      = 1998-067XY
CENTER_NAME    = EARTH
REF_FRAME      = TEME
TIME_SYSTEM    = UTC
MEAN_ELEMENT_THEORY = SGP/SGP4

EPOCH          = 2026-04-03T18:49:18.069024
MEAN_MOTION    = 15.69233885
ECCENTRICITY   = .00049
INCLINATION    = 51.6250
RA_OF_ASC_NODE = 299.7150
ARG_OF_PERICENTER = 237.6031
MEAN_ANOMALY   = 122.4492

EPHEMERIS_TYPE = 0
CLASSIFICATION_TYPE = U
NORAD_CAT_ID   = 66912
ELEMENT_SET_NO = 999
REV_AT_EPOCH   = 1908
BSTAR          = .13386E-2
MEAN_MOTION_DOT = .161885E-2
MEAN_MOTION_DDOT = 0

CCSDS_OMM_VERS = 2.0
CREATION_DATE  = 
ORIGINATOR     = 

OBJECT_NAME    = KNACKSAT-2
OBJECT_ID      = 1998-067XZ
CENTER_NAME    = EARTH
REF_FRAME      = TEME
TIME_SYSTEM    = UTC
MEAN_ELEMENT_THEORY = SGP/SGP4

EPOCH          = 2026-04-03T18:16:15.365280
MEAN_MOTION    = 15.54033651
ECCENTRICITY   = .0010476
INCLINATION    = 51.6304
RA_OF_ASC_NODE = 307.0797
ARG_OF_PERICENTER = 278.6039
MEAN_ANOMALY   = 81.3765

EPHEMERIS_TYPE = 0
CLASSIFICATION_TYPE = U
NORAD_CAT_ID   = 67683
ELEMENT_SET_NO = 999
REV_AT_EPOCH   = 868
BSTAR          = .88442E-3
MEAN_MOTION_DOT = .58417E-3
MEAN_MOTION_DDOT = 0

